ONEWEB-0326             
1 49195U 21083K   23281.09879251  .00000095  00000+0  20900-3 0  9996
2 49195  87.9219 170.9937 0001442  95.7364 264.3933 13.18687064101711
ONEWEB-0327             
1 49196U 21083L   23280.69306100  .00000043  00000+0  76868-4 0  9998
2 49196  87.9281 171.0736 0001631  93.3920 266.7399 13.18682459100402
ONEWEB-0328             
1 49197U 21083M   23281.07390901 -.00000555  00000+0 -15548-2 0  9990
2 49197  87.9042 155.8559 0001419  74.6072 285.5214 13.13470680103139
ONEWEB-0331             
1 49198U 21083N   23280.94071104  .00000500  00000+0  12367-2 0  9991
2 49198  87.9217 171.0408 0001709  86.7421 273.3906 13.18686164100424
ONEWEB-0333             
1 49199U 21083P   23280.68774509 -.00000263  00000+0 -75594-3 0  9992
2 49199  87.9047 155.9347 0001938  73.3601 286.7741 13.13471415101809
ONEWEB-0334             
1 49200U 21083Q   23281.09087134  .00000101  00000+0  21542-3 0  9995
2 49200  87.9147 110.2181 0002569  79.9301 280.2122 13.20772130108314
ONEWEB-0335             
1 49201U 21083R   23280.91204684 -.00000234  00000+0 -67466-3 0  9991
2 49201  87.9045 155.8793 0001579  72.4651 287.6650 13.13469761101845
ONEWEB-0336             
1 49202U 21083S   23280.72796042  .00000396  00000+0  10493-2 0  9999
2 49202  87.9044 155.9139 0001833  75.1302 285.0030 13.13470185101819
ONEWEB-0337             
1 49203U 21083T   23281.11728876  .00000347  00000+0  91489-3 0  9995
2 49203  87.9041 155.8354 0001524  75.8270 284.3028 13.13466345103165
ONEWEB-0338             
1 49204U 21083U   23280.56687534  .00000151  00000+0  33862-3 0  9993
2 49204  87.9151 110.2916 0002014  72.2569 287.8783 13.20772604108273
ONEWEB-0339             
1 49205U 21083V   23280.90252758 -.00000082  00000+0 -25855-3 0  9996
2 49205  87.9045 155.8816 0001575  72.5743 287.5558 13.13468827103114
ONEWEB-0340             
1 49206U 21083W   23281.07773671  .00000042  00000+0  73465-4 0  9993
2 49206  87.9214 171.0070 0001590  77.2682 282.8628 13.18688332101693
ONEWEB-0341             
1 49207U 21083X   23280.70676869  .00000005  00000+0 -18773-4 0  9995
2 49207  87.9297 171.0463 0001284  47.6278 312.4962 13.18688274100373
ONEWEB-0342             
1 49208U 21083Y   23280.80045975  .00000078  00000+0  15997-3 0  9998
2 49208  87.9145 110.2763 0001906  78.8761 281.2587 13.20773728106978
ONEWEB-0343             
1 49209U 21083Z   23281.08193974  .00000016  00000+0  91447-5 0  9991
2 49209  87.9283 171.0020 0001539  37.1883 322.9355 13.18688060101767
ONEWEB-0344             
1 49210U 21083AA  23280.94380018  .00000288  00000+0  75342-3 0  9999
2 49210  87.9045 155.8797 0001542  84.1037 276.0268 13.13470058101823
ONEWEB-0345             
1 49211U 21083AB  23281.11412036  .00000341  00000+0  89962-3 0  9999
2 49211  87.9044 155.8320 0000974  81.1782 278.9457 13.13468704103151
ONEWEB-0346             
1 49212U 21083AC  23280.71098179 -.00000032  00000+0 -11436-3 0  9993
2 49212  87.9283 171.0665 0001497  89.4506 270.6797 13.18688737100366
ONEWEB-0348             
1 49213U 21083AD  23281.09506178  .00000079  00000+0  16220-3 0  9994
2 49213  87.9143 110.1767 0001068 110.5494 249.5754 13.20774087108346
ONEWEB-0350             
1 49214U 21083AE  23281.12364623  .00000183  00000+0  46645-3 0  9996
2 49214  87.8984 155.8331 0001229  79.2730 280.8537 13.13469784103186
ONEWEB-0351             
1 49215U 21083AF  23281.08876194  .00000098  00000+0  20867-3 0  9996
2 49215  87.9149 110.1780 0001873  71.2677 288.8660 13.20771744108315
ONEWEB-0352             
1 49216U 21083AG  23281.10460703  .00000386  00000+0  10224-2 0  9990
2 49216  87.9044 155.8461 0001882  67.7371 292.3957 13.13468877103274
ONEWEB-0354             
1 49217U 21083AH  23281.03824193  .00000103  00000+0  22154-3 0  9993
2 49217  87.9145 110.1704 0001356  77.4656 282.6629 13.20770130108348
ONEWEB-0355             
1 49218U 21083AJ  23280.67926841 -.00000224  00000+0 -64707-3 0  9992
2 49218  87.9045 155.9300 0001621  69.0186 291.1117 13.13467797101790
ONEWEB-0357             
1 49219U 21083AK  23281.26130527  .00000000  00000+0 -30994-4 0  9990
2 49219  87.9147 110.1456 0001571  84.6654 275.4659 13.20772867108367
ONEWEB-0332             
1 49279U 21090A   23280.93094141  .00000011  00000+0 -59253-5 0  9990
2 49279  87.8954 125.4667 0002011  78.4016 281.7340 13.14505552 98402
ONEWEB-0347             
1 49280U 21090B   23280.79834819  .00000160  00000+0  36188-3 0  9994
2 49280  87.9208 110.1891 0002275  82.7051 277.4341 13.20770672101239
ONEWEB-0349             
1 49281U 21090C   23280.90566997  .00000059  00000+0  11352-3 0  9990
2 49281  87.9154 110.2052 0001347  89.3267 270.8020 13.20772352100036
ONEWEB-0353             
1 49282U 21090D   23280.61800689  .00000000  00000+0 -33891-4 0  9998
2 49282  87.8957 125.5091 0002074  79.0047 281.1316 13.14505533 98362
ONEWEB-0356             
1 49283U 21090E   23280.90358521  .00000001  00000+0 -28741-4 0  9993
2 49283  87.9144 110.2104 0002115 116.2632 243.8719 13.20776889100039
ONEWEB-0358             
1 49284U 21090F   23281.08455112  .00000080  00000+0  16526-3 0  9991
2 49284  87.9154 110.1500 0001445  97.5935 262.5363 13.20773284102077
ONEWEB-0359             
1 49285U 21090G   23281.08242874  .00000051  00000+0  94200-4 0  9995
2 49285  87.9140 110.1834 0001189  80.8991 279.2276 13.20769363102043
ONEWEB-0360             
1 49286U 21090H   23281.07191992  .00000040  00000+0  66064-4 0  9994
2 49286  87.9147 110.1837 0001524  83.6413 276.4894 13.20773780101364
ONEWEB-0361             
1 49287U 21090J   23280.90147415  .00000043  00000+0  74113-4 0  9994
2 49287  87.9146 110.2137 0001727  91.6701 268.4631 13.20772554100505
ONEWEB-0362             
1 49288U 21090K   23281.13668966  .00000016  00000+0  79325-5 0  9991
2 49288  87.9213 140.6492 0001719  66.2029 293.9284 13.19724346 98073
ONEWEB-0363             
1 49289U 21090L   23280.91829700  .00000063  00000+0  12217-3 0  9999
2 49289  87.9143 110.2074 0001718 102.0517 258.0809 13.20772200100517
ONEWEB-0364             
1 49290U 21090M   23281.25921730  .00000031  00000+0  44977-4 0  9999
2 49290  87.9154 110.1526 0001930  85.7542 274.3812 13.20772073102518
ONEWEB-0365             
1 49291U 21090N   23280.84289155 -.00000067  00000+0 -19958-3 0  9993
2 49291  87.9216 140.6960 0001705  74.6407 285.4913 13.19728519 98013
ONEWEB-0366             
1 49292U 21090P   23280.84214249 -.00000073  00000+0 -23068-3 0  9990
2 49292  87.8958 125.4706 0001925  83.9167 276.2182 13.14501313 99670
ONEWEB-0367             
1 49293U 21090Q   23280.91619167 -.00000020  00000+0 -82148-4 0  9994
2 49293  87.9140 110.2020 0002002  85.8124 274.3238 13.20773660100034
ONEWEB-0368             
1 49294U 21090R   23280.88884634  .00000046  00000+0  81161-4 0  9994
2 49294  87.9153 110.2267 0002561  96.9287 263.2138 13.20772562101188
ONEWEB-0369             
1 49295U 21090S   23280.91396759 -.00000023  00000+0 -90609-4 0  9999
2 49295  87.9215 140.6760 0001853  78.8573 281.2768 13.19727745 96726
ONEWEB-0370             
1 49296U 21090T   23281.07612986  .00000104  00000+0  22489-3 0  9999
2 49296  87.9142 110.1741 0001646  88.2007 271.9315 13.20771342101392
ONEWEB-0371             
1 49297U 21090U   23280.69444220  .00000540  00000+0  13174-2 0  9995
2 49297  87.9214 140.7085 0001777  76.3860 283.7470 13.19724566 96731
ONEWEB-0372             
1 49298U 21090V   23280.91410497  .00000073  00000+0  14722-3 0  9992
2 49298  87.9154 110.2050 0001871  74.3408 285.7932 13.20772642100045
ONEWEB-0373             
1 49299U 21090W   23281.09296532  .00000105  00000+0  22543-3 0  9991
2 49299  87.9220 110.1395 0002018  95.3982 264.7381 13.20773017102555
ONEWEB-0374             
1 49300U 21090X   23281.13392546 -.00000117  00000+0 -35031-3 0  9992
2 49300  87.8956 125.4022 0001801  84.1491 275.9844 13.14501955 99702
ONEWEB-0375             
1 49301U 21090Y   23280.92881975  .00000105  00000+0  22602-3 0  9993
2 49301  87.9140 110.2053 0001654 113.3498 246.7810 13.20772044100734
ONEWEB-0376             
1 49302U 21090Z   23280.69285355 -.00000054  00000+0 -16643-3 0  9991
2 49302  87.9218 140.7263 0001976  74.1091 286.0260 13.19726539 96738
ONEWEB-0377             
1 49303U 21090AA  23280.92671950  .00000063  00000+0  12228-3 0  9991
2 49303  87.9141 110.2021 0001572  79.7474 280.3837 13.20772347100728
ONEWEB-0378             
1 49304U 21090AB  23281.26867786 -.00000014  00000+0 -66191-4 0  9991
2 49304  87.9155 110.1314 0001937  94.1370 265.9985 13.20771867101358
ONEWEB-0379             
1 49305U 21090AC  23281.12758008 -.00000106  00000+0 -31982-3 0  9994
2 49305  87.8957 125.4044 0001818  82.9221 277.2115 13.14504513 99717
ONEWEB-0380             
1 49306U 21090AD  23280.84131676  .00000060  00000+0  11764-3 0  9992
2 49306  87.9215 140.6925 0001586  78.7825 281.3486 13.19724324 98005
ONEWEB-0381             
1 49307U 21090AE  23281.06351588  .00000060  00000+0  11517-3 0  9990
2 49307  87.9202 110.1289 0001552  87.2299 272.9012 13.20772131101355
ONEWEB-0382             
1 49308U 21090AF  23280.82359786  .00000092  00000+0  19326-3 0  9993
2 49308  87.9143 110.2209 0001786 101.1540 258.9794 13.20772249100010
ONEWEB-0383             
1 49309U 21090AG  23280.81677221  .00000007  00000+0 -14479-4 0  9992
2 49309  87.8966 125.4501 0001890  87.5828 272.5518 13.14501882 98409
ONEWEB-0384             
1 49310U 21090AH  23281.42545555  .00000062  00000+0  11958-3 0  9994
2 49310  87.9153 110.1001 0001939 106.4383 253.6963 13.20772799101411
ONEWEB-0385             
1 49311U 21090AJ  23280.89093606  .00000066  00000+0  13020-3 0  9996
2 49311  87.9154 110.2089 0001700 100.7687 259.3637 13.20773862100007
ONEWEB-0386             
1 49312U 21090AK  23280.90778435 -.00000059  00000+0 -17734-3 0  9999
2 49312  87.9147 110.2172 0001809  96.3443 263.7896 13.20771100100024
